OSCAR 31                
1 19420U 88074B   26065.82913056  .00000119  00000+0  18929-3 0  9998
2 19420  90.0432  20.8931 0094573   1.8995  25.9842 13.42597465837799
