[{"OBJECT_NAME":"OSCAR 31","OBJECT_ID":"1988-074B","EPOCH":"2026-03-06T19:53:56.880384","MEAN_MOTION":13.42597465,"ECCENTRICITY":0.0094573,"INCLINATION":90.0432,"RA_OF_ASC_NODE":20.8931,"ARG_OF_PERICENTER":1.8995,"MEAN_ANOMALY":25.9842,"EPHEMERIS_TYPE":0,"CLASSIFICATION_TYPE":"U","NORAD_CAT_ID":19420,"ELEMENT_SET_NO":999,"REV_AT_EPOCH":83779,"BSTAR":0.00018929,"MEAN_MOTION_DOT":1.19e-6,"MEAN_MOTION_DDOT":0}]
